{"fetched_at":"2026-07-23T07:05:17.272Z","source":"https://celestrak.org/NORAD/elements/gp.php?GROUP=kuiper&FORMAT=JSON","constellation":"kuiper","records":[{"OBJECT_NAME":"KUIPER-00357","OBJECT_ID":"2026-095C","EPOCH":"2026-07-22T15:50:56.772384","CLASSIFICATION_TYPE":"U","MEAN_MOTION":14.79946679,"ECCENTRICITY":0.00012287,"INCLINATION":51.9014,"RA_OF_ASC_NODE":86.2988,"ARG_OF_PERICENTER":103.851,"MEAN_ANOMALY":256.2589,"EPHEMERIS_TYPE":0,"NORAD_CAT_ID":68866,"ELEMENT_SET_NO":999,"REV_AT_EPOCH":1297,"BSTAR":-0.000055476703,"MEAN_MOTION_DOT":-0.00000644,"MEAN_MOTION_DDOT":0},{"OBJECT_NAME":"KUIPER-00364","OBJECT_ID":"2026-095D","EPOCH":"2026-07-22T16:35:47.509440","CLASSIFICATION_TYPE":"U","MEAN_MOTION":14.79949955,"ECCENTRICITY":0.00011338,"INCLINATION":51.9035,"RA_OF_ASC_NODE":88.6704,"ARG_OF_PERICENTER":169.8616,"MEAN_ANOMALY":190.237,"EPHEMERIS_TYPE":0,"NORAD_CAT_ID":68867,"ELEMENT_SET_NO":999,"REV_AT_EPOCH":1294,"BSTAR":0.00041798036,"MEAN_MOTION_DOT":0.00002968,"MEAN_MOTION_DDOT":0},{"OBJECT_NAME":"KUIPER-00375","OBJECT_ID":"2026-095E","EPOCH":"2026-07-22T16:30:23.505120","CLASSIFICATION_TYPE":"U","MEAN_MOTION":14.76405083,"ECCENTRICITY":0.00033459,"INCLINATION":51.902,"RA_OF_ASC_NODE":80.7074,"ARG_OF_PERICENTER":117.7858,"MEAN_ANOMALY":242.3442,"EPHEMERIS_TYPE":0,"NORAD_CAT_ID":68868,"ELEMENT_SET_NO":999,"REV_AT_EPOCH":1305,"BSTAR":0.00025139906,"MEAN_MOTION_DOT":0.00001549,"MEAN_MOTION_DDOT":0},{"OBJECT_NAME":"KUIPER-00433","OBJECT_ID":"2026-095F","EPOCH":"2026-07-21T03:56:22.769088","CLASSIFICATION_TYPE":"U","MEAN_MOTION":14.79986815,"ECCENTRICITY":0.00012797,"INCLINATION":51.9014,"RA_OF_ASC_NODE":102.9121,"ARG_OF_PERICENTER":94.0144,"MEAN_ANOMALY":266.0964,"EPHEMERIS_TYPE":0,"NORAD_CAT_ID":68869,"ELEMENT_SET_NO":999,"REV_AT_EPOCH":1261,"BSTAR":0.00034157799,"MEAN_MOTION_DOT":0.00002387,"MEAN_MOTION_DDOT":0},{"OBJECT_NAME":"KUIPER-00437","OBJECT_ID":"2026-095G","EPOCH":"2026-07-22T15:03:42.546528","CLASSIFICATION_TYPE":"U","MEAN_MOTION":15.38711598,"ECCENTRICITY":0.00081053,"INCLINATION":51.8785,"RA_OF_ASC_NODE":70.8542,"ARG_OF_PERICENTER":76.786,"MEAN_ANOMALY":283.4032,"EPHEMERIS_TYPE":0,"NORAD_CAT_ID":68870,"ELEMENT_SET_NO":999,"REV_AT_EPOCH":1318,"BSTAR":0.00076501337,"MEAN_MOTION_DOT":0.00029476,"MEAN_MOTION_DDOT":0},{"OBJECT_NAME":"KUIPER-00448","OBJECT_ID":"2026-095H","EPOCH":"2026-07-22T16:19:42.727296","CLASSIFICATION_TYPE":"U","MEAN_MOTION":14.76438505,"ECCENTRICITY":0.00012244,"INCLINATION":51.9044,"RA_OF_ASC_NODE":84.6627,"ARG_OF_PERICENTER":186.9446,"MEAN_ANOMALY":173.1498,"EPHEMERIS_TYPE":0,"NORAD_CAT_ID":68871,"ELEMENT_SET_NO":999,"REV_AT_EPOCH":1299,"BSTAR":0.00018121587,"MEAN_MOTION_DOT":0.00001058,"MEAN_MOTION_DDOT":0},{"OBJECT_NAME":"KUIPER-00459","OBJECT_ID":"2026-095J","EPOCH":"2026-07-22T20:00:01.999872","CLASSIFICATION_TYPE":"U","MEAN_MOTION":14.97344526,"ECCENTRICITY":0.00084207,"INCLINATION":51.8939,"RA_OF_ASC_NODE":73.5628,"ARG_OF_PERICENTER":58.864,"MEAN_ANOMALY":221.3717,"EPHEMERIS_TYPE":0,"NORAD_CAT_ID":68872,"ELEMENT_SET_NO":999,"REV_AT_EPOCH":452,"BSTAR":-0.16229756,"MEAN_MOTION_DOT":-0.01737939,"MEAN_MOTION_DDOT":0},{"OBJECT_NAME":"KUIPER-00468","OBJECT_ID":"2026-095K","EPOCH":"2026-07-22T22:16:49.362240","CLASSIFICATION_TYPE":"U","MEAN_MOTION":15.13338085,"ECCENTRICITY":0.00046231,"INCLINATION":51.8893,"RA_OF_ASC_NODE":71.3821,"ARG_OF_PERICENTER":36.7932,"MEAN_ANOMALY":323.3361,"EPHEMERIS_TYPE":0,"NORAD_CAT_ID":68873,"ELEMENT_SET_NO":999,"REV_AT_EPOCH":1320,"BSTAR":0.00035424372,"MEAN_MOTION_DOT":0.00006094,"MEAN_MOTION_DDOT":0},{"OBJECT_NAME":"KUIPER-00476","OBJECT_ID":"2026-095L","EPOCH":"2026-07-22T21:21:16.432128","CLASSIFICATION_TYPE":"U","MEAN_MOTION":15.32514734,"ECCENTRICITY":0.00099357,"INCLINATION":51.8751,"RA_OF_ASC_NODE":71.0329,"ARG_OF_PERICENTER":73.8731,"MEAN_ANOMALY":286.3346,"EPHEMERIS_TYPE":0,"NORAD_CAT_ID":68874,"ELEMENT_SET_NO":999,"REV_AT_EPOCH":1320,"BSTAR":-0.000042551906,"MEAN_MOTION_DOT":-0.00001734,"MEAN_MOTION_DDOT":0},{"OBJECT_NAME":"KUIPER-00478","OBJECT_ID":"2026-095M","EPOCH":"2026-07-22T20:00:01.999872","CLASSIFICATION_TYPE":"U","MEAN_MOTION":14.81443664,"ECCENTRICITY":0.0002413,"INCLINATION":51.8989,"RA_OF_ASC_NODE":75.4302,"ARG_OF_PERICENTER":77.0589,"MEAN_ANOMALY":122.428,"EPHEMERIS_TYPE":0,"NORAD_CAT_ID":68875,"ELEMENT_SET_NO":999,"REV_AT_EPOCH":514,"BSTAR":-0.0062469201,"MEAN_MOTION_DOT":-0.0004924,"MEAN_MOTION_DDOT":0},{"OBJECT_NAME":"KUIPER-00480","OBJECT_ID":"2026-095N","EPOCH":"2026-07-22T20:00:01.999872","CLASSIFICATION_TYPE":"U","MEAN_MOTION":14.96013672,"ECCENTRICITY":0.00055422,"INCLINATION":51.8928,"RA_OF_ASC_NODE":72.9901,"ARG_OF_PERICENTER":44.9964,"MEAN_ANOMALY":278.1076,"EPHEMERIS_TYPE":0,"NORAD_CAT_ID":68876,"ELEMENT_SET_NO":999,"REV_AT_EPOCH":390,"BSTAR":-0.16735044,"MEAN_MOTION_DOT":-0.0173056,"MEAN_MOTION_DDOT":0},{"OBJECT_NAME":"KUIPER-00482","OBJECT_ID":"2026-095P","EPOCH":"2026-07-22T16:34:47.377632","CLASSIFICATION_TYPE":"U","MEAN_MOTION":14.76423533,"ECCENTRICITY":0.00006077,"INCLINATION":51.9006,"RA_OF_ASC_NODE":83.5975,"ARG_OF_PERICENTER":284.5013,"MEAN_ANOMALY":75.5881,"EPHEMERIS_TYPE":0,"NORAD_CAT_ID":68877,"ELEMENT_SET_NO":999,"REV_AT_EPOCH":1301,"BSTAR":0.00027510242,"MEAN_MOTION_DOT":0.00001716,"MEAN_MOTION_DDOT":0},{"OBJECT_NAME":"KUIPER-00483","OBJECT_ID":"2026-095Q","EPOCH":"2026-07-22T16:18:03.390624","CLASSIFICATION_TYPE":"U","MEAN_MOTION":14.7652543,"ECCENTRICITY":0.0001145,"INCLINATION":51.8992,"RA_OF_ASC_NODE":96.1442,"ARG_OF_PERICENTER":282.8846,"MEAN_ANOMALY":77.1987,"EPHEMERIS_TYPE":0,"NORAD_CAT_ID":68878,"ELEMENT_SET_NO":999,"REV_AT_EPOCH":1283,"BSTAR":0.00029868404,"MEAN_MOTION_DOT":0.00001887,"MEAN_MOTION_DDOT":0},{"OBJECT_NAME":"KUIPER-00488","OBJECT_ID":"2026-095R","EPOCH":"2026-07-22T20:00:01.999872","CLASSIFICATION_TYPE":"U","MEAN_MOTION":14.79903219,"ECCENTRICITY":0.00011455,"INCLINATION":51.8998,"RA_OF_ASC_NODE":78.0457,"ARG_OF_PERICENTER":95.146,"MEAN_ANOMALY":63.1777,"EPHEMERIS_TYPE":0,"NORAD_CAT_ID":68879,"ELEMENT_SET_NO":999,"REV_AT_EPOCH":502,"BSTAR":-0.0035458526,"MEAN_MOTION_DOT":-0.00027125,"MEAN_MOTION_DDOT":0},{"OBJECT_NAME":"KUIPER-00489","OBJECT_ID":"2026-095S","EPOCH":"2026-07-22T20:00:01.999872","CLASSIFICATION_TYPE":"U","MEAN_MOTION":15.14130552,"ECCENTRICITY":0.00125981,"INCLINATION":51.8851,"RA_OF_ASC_NODE":72.0482,"ARG_OF_PERICENTER":71.7697,"MEAN_ANOMALY":341.9529,"EPHEMERIS_TYPE":0,"NORAD_CAT_ID":68880,"ELEMENT_SET_NO":999,"REV_AT_EPOCH":520,"BSTAR":-0.073356556,"MEAN_MOTION_DOT":-0.01242627,"MEAN_MOTION_DDOT":0},{"OBJECT_NAME":"KUIPER-00499","OBJECT_ID":"2026-095T","EPOCH":"2026-07-22T20:00:01.999872","CLASSIFICATION_TYPE":"U","MEAN_MOTION":14.88888031,"ECCENTRICITY":0.00054962,"INCLINATION":51.9096,"RA_OF_ASC_NODE":75.7297,"ARG_OF_PERICENTER":66.6817,"MEAN_ANOMALY":193.7888,"EPHEMERIS_TYPE":0,"NORAD_CAT_ID":68881,"ELEMENT_SET_NO":999,"REV_AT_EPOCH":405,"BSTAR":-0.13135401,"MEAN_MOTION_DOT":-0.01156744,"MEAN_MOTION_DDOT":0}]}
