{"epoch":1784799577,"count":18318,"objects":[{"id":"68866","name":"KUIPER-00357","type":"PAYLOAD","l1":"1 68866U 26095C   26203.66037931 -.00000644  00000-0 -55477-4 0  9992","l2":"2 68866  51.9014  86.2988 0001229 103.8510 256.2589 14.79946679 12977"},{"id":"68867","name":"KUIPER-00364","type":"PAYLOAD","l1":"1 68867U 26095D   26203.69152210  .00002968  00000-0  41798-3 0  9993","l2":"2 68867  51.9035  88.6704 0001134 169.8616 190.2370 14.79949955 12949"},{"id":"68868","name":"KUIPER-00375","type":"PAYLOAD","l1":"1 68868U 26095E   26203.68777205  .00001549  00000-0  25140-3 0  9997","l2":"2 68868  51.9020  80.7074 0003346 117.7858 242.3442 14.76405083 13052"},{"id":"68869","name":"KUIPER-00433","type":"PAYLOAD","l1":"1 68869U 26095F   26202.16415242  .00002387  00000-0  34158-3 0  9990","l2":"2 68869  51.9014 102.9121 0001280  94.0144 266.0964 14.79986815 12619"},{"id":"68870","name":"KUIPER-00437","type":"PAYLOAD","l1":"1 68870U 26095G   26203.62757577  .00029476  00000-0  76501-3 0  9990","l2":"2 68870  51.8785  70.8542 0008105  76.7860 283.4032 15.38711598 13182"},{"id":"68871","name":"KUIPER-00448","type":"PAYLOAD","l1":"1 68871U 26095H   26203.68035564  .00001058  00000-0  18122-3 0  9993","l2":"2 68871  51.9044  84.6627 0001224 186.9446 173.1498 14.76438505 12992"},{"id":"68872","name":"KUIPER-00459","type":"PAYLOAD","l1":"1 68872U 26095J   26203.83335648 -.01737939  00000-0 -16230+0 0  9998","l2":"2 68872  51.8939  73.5628 0008421  58.8640 221.3717 14.97344526  4524"},{"id":"68873","name":"KUIPER-00468","type":"PAYLOAD","l1":"1 68873U 26095K   26203.92834910  .00006094  00000-0  35424-3 0  9993","l2":"2 68873  51.8893  71.3821 0004623  36.7932 323.3361 15.13338085 13209"},{"id":"68874","name":"KUIPER-00476","type":"PAYLOAD","l1":"1 68874U 26095L   26203.88977352 -.00001734  00000-0 -42552-4 0  9996","l2":"2 68874  51.8751  71.0329 0009936  73.8731 286.3346 15.32514734 13203"},{"id":"68875","name":"KUIPER-00478","type":"PAYLOAD","l1":"1 68875U 26095M   26203.83335648 -.00049240  00000-0 -62469-2 0  9999","l2":"2 68875  51.8989  75.4302 0002413  77.0589 122.4280 14.81443664  5143"},{"id":"68876","name":"KUIPER-00480","type":"PAYLOAD","l1":"1 68876U 26095N   26203.83335648 -.01730560  00000-0 -16735+0 0  9995","l2":"2 68876  51.8928  72.9901 0005542  44.9964 278.1076 14.96013672  3902"},{"id":"68877","name":"KUIPER-00482","type":"PAYLOAD","l1":"1 68877U 26095P   26203.69082613  .00001716  00000-0  27510-3 0  9999","l2":"2 68877  51.9006  83.5975 0000608 284.5013  75.5881 14.76423533 13010"},{"id":"68878","name":"KUIPER-00483","type":"PAYLOAD","l1":"1 68878U 26095Q   26203.67920591  .00001887  00000-0  29868-3 0  9991","l2":"2 68878  51.8992  96.1442 0001145 282.8846  77.1987 14.76525430 12838"},{"id":"68879","name":"KUIPER-00488","type":"PAYLOAD","l1":"1 68879U 26095R   26203.83335648 -.00027125  00000-0 -35459-2 0  9990","l2":"2 68879  51.8998  78.0457 0001146  95.1460  63.1777 14.79903219  5021"},{"id":"68880","name":"KUIPER-00489","type":"PAYLOAD","l1":"1 68880U 26095S   26203.83335648 -.01242627  00000-0 -73357-1 0  9997","l2":"2 68880  51.8851  72.0482 0012598  71.7697 341.9529 15.14130552  5202"},{"id":"68881","name":"KUIPER-00499","type":"PAYLOAD","l1":"1 68881U 26095T   26203.83335648 -.01156744  00000-0 -13135+0 0  9998","l2":"2 68881  51.9096  75.7297 0005496  66.6817 193.7888 14.88888031  4050"}]}